stk.v.12.0

# WrittenBy    Horizons_to_STK_converter

BEGIN Ephemeris

    NumberOfEphemerisPoints		 8737

    ScenarioEpoch		 1 Jan 2028 00:00:00.000000

# Epoch in JDate format: 2461771.50000000000000
# Epoch in YYDDD format:   28001.00000000000000

    InterpolationMethod		 Lagrange

    InterpolationSamplesM1		 7

    DistanceUnit		 Kilometers

    CentralBody		 Sun

    CoordinateSystem		 ICRF

# Time of first point: 1 Jan 2028 00:00:00.000000 UTCG = 2461771.50000000000000 JDate = 28001.00000000000000 YYDDD

    EphemerisTimePosVel

1.6887599999973178e+07  5.728046424407659E+07  -1.292419204313402E+08  -5.602401692998516E+07  2.711307921250570E+01  1.018445067990100E+01  4.414467789281999E+00
1.6891200000000000e+07  5.737805749925073E+07  -1.292052247541441E+08  -5.600811110446832E+07  2.710539362985425E+01  1.020203597650871E+01  4.422101652395254E+00
1.6894800000026822e+07  5.747562306197761E+07  -1.291684657771725E+08  -5.599217780017776E+07  2.709769451892264E+01  1.021961722047671E+01  4.429733773960704E+00
1.6898399999973178e+07  5.757316088354830E+07  -1.291316435150300E+08  -5.597621702339091E+07  2.708998187575657E+01  1.023719440336717E+01  4.437364149607196E+00
1.6902000000000000e+07  5.767067091523960E+07  -1.290947579823517E+08  -5.596022878040096E+07  2.708225569638523E+01  1.025476751671040E+01  4.444992774946207E+00
1.6905600000026822e+07  5.776815310831404E+07  -1.290578091938033E+08  -5.594421307751695E+07  2.707451597682100E+01  1.027233655200433E+01  4.452619645571580E+00
1.6909199999973178e+07  5.786560741401969E+07  -1.290207971640812E+08  -5.592816992106380E+07  2.706676271305918E+01  1.028990150071403E+01  4.460244757059244E+00
1.6912800000000000e+07  5.796303378359021E+07  -1.289837219079123E+08  -5.591209931738243E+07  2.705899590107760E+01  1.030746235427110E+01  4.467868104966939E+00
1.6916400000026822e+07  5.806043216824473E+07  -1.289465834400549E+08  -5.589600127282970E+07  2.705121553683639E+01  1.032501910407323E+01  4.475489684833922E+00
1.6919999999973178e+07  5.815780251918785E+07  -1.289093817752979E+08  -5.587987579377864E+07  2.704342161627770E+01  1.034257174148354E+01  4.483109492180671E+00
1.6923600000000000e+07  5.825514478760946E+07  -1.288721169284615E+08  -5.586372288661841E+07  2.703561413532539E+01  1.036012025783005E+01  4.490727522508596E+00
1.6927200000026822e+07  5.835245892468481E+07  -1.288347889143972E+08  -5.584754255775442E+07  2.702779308988477E+01  1.037766464440509E+01  4.498343771299710E+00
1.6930799999973178e+07  5.844974488157431E+07  -1.287973977479880E+08  -5.583133481360836E+07  2.701995847584238E+01  1.039520489246465E+01  4.505958234016334E+00
1.6934400000000000e+07  5.854700260942359E+07  -1.287599434441482E+08  -5.581509966061826E+07  2.701211028906570E+01  1.041274099322781E+01  4.513570906100762E+00
1.6938000000026822e+07  5.864423205936333E+07  -1.287224260178241E+08  -5.579883710523867E+07  2.700424852540290E+01  1.043027293787605E+01  4.521181782974945E+00
1.6941599999973178e+07  5.874143318250921E+07  -1.286848454839935E+08  -5.578254715394061E+07  2.699637318068275E+01  1.044780071755262E+01  4.528790860040147E+00
1.6945200000000000e+07  5.883860592996194E+07  -1.286472018576664E+08  -5.576622981321170E+07  2.698848425071420E+01  1.046532432336186E+01  4.536398132676610E+00
1.6948800000026822e+07  5.893575025280701E+07  -1.286094951538847E+08  -5.574988508955622E+07  2.698058173128636E+01  1.048284374636849E+01  4.544003596243209E+00
1.6952399999973178e+07  5.903286610211477E+07  -1.285717253877226E+08  -5.573351298949523E+07  2.697266561816820E+01  1.050035897759696E+01  4.551607246077094E+00
1.6956000000000000e+07  5.912995342894030E+07  -1.285338925742869E+08  -5.571711351956657E+07  2.696473590710847E+01  1.051787000803066E+01  4.559209077493337E+00
1.6959600000026822e+07  5.922701218432330E+07  -1.284959967287166E+08  -5.570068668632502E+07  2.695679259383544E+01  1.053537682861127E+01  4.566809085784561E+00
1.6963199999973178e+07  5.932404231928810E+07  -1.284580378661837E+08  -5.568423249634235E+07  2.694883567405683E+01  1.055287943023792E+01  4.574407266220574E+00
1.6966800000000000e+07  5.942104378484353E+07  -1.284200160018926E+08  -5.566775095620737E+07  2.694086514345969E+01  1.057037780376648E+01  4.582003614047993E+00
1.6970400000026822e+07  5.951801653198283E+07  -1.283819311510813E+08  -5.565124207252607E+07  2.693288099771017E+01  1.058787194000877E+01  4.589598124489854E+00
1.6973999999973178e+07  5.961496051168364E+07  -1.283437833290204E+08  -5.563470585192166E+07  2.692488323245358E+01  1.060536182973177E+01  4.597190792745230E+00
1.6977600000000000e+07  5.971187567490784E+07  -1.283055725510142E+08  -5.561814230103471E+07  2.691687184331418E+01  1.062284746365677E+01  4.604781613988837E+00
1.6981200000026822e+07  5.980876197260157E+07  -1.282672988324002E+08  -5.560155142652317E+07  2.690884682589518E+01  1.064032883245860E+01  4.612370583370629E+00
1.6984799999973178e+07  5.990561935569505E+07  -1.282289621885499E+08  -5.558493323506252E+07  2.690080817577864E+01  1.065780592676474E+01  4.619957696015398E+00
1.6988400000000000e+07  6.000244777510261E+07  -1.281905626348682E+08  -5.556828773334583E+07  2.689275588852549E+01  1.067527873715451E+01  4.627542947022362E+00
1.6992000000026822e+07  6.009924718172251E+07  -1.281521001867944E+08  -5.555161492808384E+07  2.688468995967548E+01  1.069274725415815E+01  4.635126331464749E+00
1.6995599999973178e+07  6.019601752643698E+07  -1.281135748598018E+08  -5.553491482600509E+07  2.687661038474721E+01  1.071021146825598E+01  4.642707844389371E+00
1.6999200000000000e+07  6.029275876011200E+07  -1.280749866693980E+08  -5.551818743385603E+07  2.686851715923810E+01  1.072767136987748E+01  4.650287480816210E+00
1.7002800000026822e+07  6.038947083359737E+07  -1.280363356311252E+08  -5.550143275840103E+07  2.686041027862450E+01  1.074512694940037E+01  4.657865235737971E+00
1.7006399999973178e+07  6.048615369772652E+07  -1.279976217605604E+08  -5.548465080642256E+07  2.685228973836169E+01  1.076257819714969E+01  4.665441104119663E+00
1.7010000000000000e+07  6.058280730331650E+07  -1.279588450733155E+08  -5.546784158472129E+07  2.684415553388403E+01  1.078002510339687E+01  4.673015080898144E+00
1.7013600000026822e+07  6.067943160116792E+07  -1.279200055850375E+08  -5.545100510011613E+07  2.683600766060498E+01  1.079746765835875E+01  4.680587160981688E+00
1.7017199999973178e+07  6.077602654206478E+07  -1.278811033114087E+08  -5.543414135944440E+07  2.682784611391732E+01  1.081490585219665E+01  4.688157339249525E+00
1.7020800000000000e+07  6.087259207677448E+07  -1.278421382681468E+08  -5.541725036956189E+07  2.681967088919321E+01  1.083233967501536E+01  4.695725610551400E+00
1.7024400000026822e+07  6.096912815604773E+07  -1.278031104710057E+08  -5.540033213734300E+07  2.681148198178006E+01  1.084976911686524E+01  4.703291969708276E+00
1.7027999999973178e+07  6.106563473061848E+07  -1.277640199357746E+08  -5.538338666968082E+07  2.680327938701495E+01  1.086719416773157E+01  4.710856411508279E+00
1.7031600000000000e+07  6.116211175120379E+07  -1.277248666782793E+08  -5.536641397348726E+07  2.679506310020927E+01  1.088461481754363E+01  4.718418930709944E+00
1.7035200000026822e+07  6.125855916850388E+07  -1.276856507143817E+08  -5.534941405569316E+07  2.678683311665471E+01  1.090203105617013E+01  4.725979522040466E+00
1.7038799999973178e+07  6.135497693320193E+07  -1.276463720599805E+08  -5.533238692324838E+07  2.677858943162347E+01  1.091944287341816E+01  4.733538180195216E+00
1.7042400000000000e+07  6.145136499596409E+07  -1.276070307310111E+08  -5.531533258312196E+07  2.677033204036854E+01  1.093685025903210E+01  4.741094899837280E+00
1.7046000000026822e+07  6.154772330743940E+07  -1.275676267434458E+08  -5.529825104230220E+07  2.676206093812406E+01  1.095425320269264E+01  4.748649675596975E+00
1.7049599999973178e+07  6.164405181825966E+07  -1.275281601132945E+08  -5.528114230779681E+07  2.675377612010563E+01  1.097165169401561E+01  4.756202502071365E+00
1.7053200000000000e+07  6.174035047903947E+07  -1.274886308566042E+08  -5.526400638663296E+07  2.674547758151069E+01  1.098904572255094E+01  4.763753373823787E+00
1.7056800000026822e+07  6.183661924037606E+07  -1.274490389894601E+08  -5.524684328585750E+07  2.673716531751894E+01  1.100643527778158E+01  4.771302285383360E+00
1.7060399999973178e+07  6.193285805284933E+07  -1.274093845279849E+08  -5.522965301253703E+07  2.672883932329274E+01  1.102382034912235E+01  4.778849231244499E+00
1.7064000000000000e+07  6.202906686702166E+07  -1.273696674883398E+08  -5.521243557375803E+07  2.672049959397755E+01  1.104120092591885E+01  4.786394205866428E+00
1.7067600000026822e+07  6.212524563343801E+07  -1.273298878867246E+08  -5.519519097662697E+07  2.671214612470247E+01  1.105857699744633E+01  4.793937203672691E+00
1.7071199999973178e+07  6.222139430262571E+07  -1.272900457393775E+08  -5.517791922827050E+07  2.670377891058072E+01  1.107594855290853E+01  4.801478219050651E+00
1.7074800000000000e+07  6.231751282509449E+07  -1.272501410625760E+08  -5.516062033583549E+07  2.669539794671018E+01  1.109331558143660E+01  4.809017246351009E+00
1.7078400000026822e+07  6.241360115133642E+07  -1.272101738726366E+08  -5.514329430648928E+07  2.668700322817398E+01  1.111067807208788E+01  4.816554279887306E+00
1.7081999999973178e+07  6.250965923182584E+07  -1.271701441859156E+08  -5.512594114741969E+07  2.667859475004106E+01  1.112803601384480E+01  4.824089313935427E+00
1.7085600000000000e+07  6.260568701701928E+07  -1.271300520188089E+08  -5.510856086583525E+07  2.667017250736692E+01  1.114538939561366E+01  4.831622342733110E+00
1.7089200000026822e+07  6.270168445735548E+07  -1.270898973877526E+08  -5.509115346896528E+07  2.666173649519415E+01  1.116273820622352E+01  4.839153360479449E+00
END Ephemeris
